FLOCK 2P-8              
1 41613U 16040Q   17298.15165055  .00009050  00000-0  38607-3 0  9992
2 41613  97.4475 359.9766 0010555 356.6567   3.4597 15.23096722 74446
FLOCK 2P-12             
1 41614U 16040R   17298.17891799  .00009524  00000-0  40603-3 0  9991
2 41614  97.4484   0.1559 0010213 357.1165   3.0011 15.23105499 74453
FLOCK 2P-7              
1 41615U 16040S   17298.14589227  .00011275  00000-0  47972-3 0  9991
2 41615  97.4471 359.9669 0010380 357.3590   2.7590 15.23124777 74443
FLOCK 2P-5              
1 41616U 16040T   17298.12420060  .00008713  00000-0  37170-3 0  9991
2 41616  97.4485   0.0754 0010167 356.7885   3.3285 15.23111516 74424
FLOCK 2P-1              
1 41617U 16040U   17298.17810997  .00011902  00000-0  50606-3 0  9992
2 41617  97.4486   0.1597 0009944 356.7914   3.3257 15.23138789 74459
FLOCK 2P-3              
1 41618U 16040V   17298.14060076  .00008367  00000-0  35722-3 0  9998
2 41618  97.4486   0.0477 0010112 357.3514   2.7667 15.23098896 74449
BEESAT-4                
1 41619U 16040W   17297.59812308  .00003082  00000-0  14065-3 0  9996
2 41619  97.4477 358.6723 0011204 343.5080  16.5790 15.21316717 62264
3CAT-2                  
1 41732U 16051B   17298.10220591  .00002138  00000-0  87445-4 0  9993
2 41732  97.3729 213.1593 0013848 167.7365 305.3929 15.25361563 66335
FLOCK 2E'-13            
1 41761U 98067KH  17298.01909760  .00020738  00000-0  21995-3 0  9997
2 41761  51.6364  95.6758 0005417  29.8985 330.2318 15.64048443 63204
FLOCK 2E'-14            
1 41762U 98067KJ  17297.85429663  .00023310  00000-0  24242-3 0  9995
2 41762  51.6375  96.1139 0004915  29.1800 330.9469 15.64470767 63186
FLOCK 2E'-16            
1 41763U 98067KK  17297.90909267  .00025189  00000-0  25442-3 0  9994
2 41763  51.6378  94.9768 0004297  42.7409 317.3919 15.65163676 63169
FLOCK 2E'-15            
1 41764U 98067KL  17297.91144290  .00022809  00000-0  24265-3 0  9991
2 41764  51.6374  96.4901 0005024  37.2709 322.8634 15.63907522 63140
FLOCK 2E'-18            
1 41769U 98067KM  17297.82913433  .00017177  00000-0  18389-3 0  9991
2 41769  51.6372  96.6833 0004113  63.4228 296.7187 15.63963048 63130
FLOCK 2E'-17            
1 41776U 98067KN  17297.81310825  .00017805  00000-0  18889-3 0  9997
2 41776  51.6384  96.6060 0004335  64.0359 296.1082 15.64164559 63129
FLOCK 2E'-19            
1 41777U 98067KP  17297.80360010  .00030047  00000-0  26809-3 0  9992
2 41777  51.6356  91.2114 0002848  59.4971 300.6307 15.68155718 63150
FLOCK 2E'-20            
1 41782U 98067KQ  17298.00359798  .00033416  00000-0  31102-3 0  9997
2 41782  51.6369  91.8434 0002950  58.7585 301.3700 15.67054757 63030
CANX-7                  
1 41788U 16059F   17297.74742293  .00009840  00000-0  17765-2 0  9992
2 41788  98.1875 358.8831 0035361 127.0049 233.4405 14.66245014 57562
ALSAT 1N                
1 41789U 16059G   17298.07065380  .00000149  00000-0  37336-4 0  9996
2 41789  98.1536 358.7539 0029801 106.0176 254.4317 14.64091139 57617
RAVAN                   
1 41849U 16067B   17297.68646930  .00001706  00000-0  15237-3 0  9999
2 41849  97.9405  17.8646 0008047 222.3662 137.6938 14.97298615 51887
CELTEE 1                
1 41850U 16067C   17298.17107632  .00001116  00000-0  10314-3 0  9993
2 41850  97.9403  18.1515 0007996 217.3427 142.7239 14.96660566 51946
OPTICUBE 04             
1 41851U 16067D   17298.18363443  .00000748  00000-0  71077-4 0  9993
2 41851  97.9406  18.1333 0007808 219.1056 140.9601 14.96564812 51948
AEROCUBE 8D             
1 41852U 16067E   17298.18803288  .00000793  00000-0  75498-4 0  9991
2 41852  97.9419  18.0183 0008633 219.9512 140.1074 14.96321850 51935
AEROCUBE 8C             
1 41853U 16067F   17298.19654211  .00000348  00000-0  36169-4 0  9991
2 41853  97.9417  18.0052 0009032 222.3128 137.7397 14.96285008 51938
PROMETHEUS 2-1          
1 41854U 16067G   17298.21289313  .00000775  00000-0  73951-4 0  9996
2 41854  97.9416  17.9920 0009658 222.8904 137.1564 14.96294073 51933
PROMETHEUS 2-3          
1 41855U 16067H   17298.21493591  .00000856  00000-0  81139-4 0  9999
2 41855  97.9415  17.9939 0009854 223.2262 136.8187 14.96287456 51937
LEMUR-2-XIAOQING        
1 41871U 16062C   17298.09364469  .00003906  00000-0  17727-3 0  9999
2 41871  51.6351 189.6421 0004432 338.6763 162.5627 15.23096817 50730
LEMUR-2-SOKOLSKY        
1 41872U 16062D   17298.13847878  .00004470  00000-0  20012-3 0  9993
2 41872  51.6727 189.2601 0005131   0.0491 118.8176 15.23223282 50730
LEMUR-2-ANUBHAVTHAKUR   
1 41873U 16062E   17298.08965594  .00001766  00000-0  90797-4 0  9997
2 41873  51.6460 190.9748 0004895 353.8359 146.6373 15.21916643 50695
LEMUR-2-WINGO           
1 41874U 16062F   17298.19701396  .00003858  00000-0  17702-3 0  9996
2 41874  51.6385 189.4311 0004764 328.0519 168.9685 15.22749579 50739
STARS-C                 
1 41895U 98067KR  17297.98012133  .00111362  00000-0  81466-3 0  9992
2 41895  51.6340  95.3942 0000629  96.2665 263.8405 15.72360264 48322
TANCREDO-1              
1 41931U 98067KT  17290.98270503  .14164078  12479-4  76733-3 0  9998
2 41931  51.6104 115.9004 0006182 280.1451  79.8879 16.42240901 42996
ITF-2                   
1 41932U 98067KU  17297.83370791  .00029062  00000-0  30567-3 0  9996
2 41932  51.6384 101.9987 0003825  33.2621 326.8614 15.64053911 43796
WASEDA-SAT3             
1 41933U 98067KV  17297.86584156  .00046151  00000-0  45449-3 0  9995
2 41933  51.6363 100.6730 0003438  33.9283 326.1932 15.65491335 43813
AOBA-VELOX 3            
1 41935U 98067KX  17297.84356048  .00033598  00000-0  33990-3 0  9991
2 41935  51.6381 101.3038 0003120  35.2064 324.9137 15.64964603 43909
OSNSAT                  
1 41939U 98067KZ  17297.79499852  .00107547  00000-0  63554-3 0  9995
2 41939  51.6347  92.6293 0002976 351.2075   8.8873 15.77292257 43268
FLOCK 3P-8              
1 41951U 17008D   17297.81740370  .00004542  00000-0  19390-3 0  9992
2 41951  97.4811 358.7416 0010088  98.1124 262.1258 15.23357725 38263
FLOCK 3P-51             
1 41952U 17008E   17298.18178158  .00005708  00000-0  24276-3 0  9997
2 41952  97.4816 359.1942 0009991 112.4896 247.7399 15.23376384 38318
FLOCK 3P-37             
1 41953U 17008F   17297.79535986  .00005699  00000-0  23920-3 0  9994
2 41953  97.4816 358.9354 0009205 117.7531 242.4641 15.23829354 38272
INS-1B                  
1 41954U 17008G   17297.79264782  .00003050  00000-0  13552-3 0  9997
2 41954  97.4787 358.3978 0011309  98.1812 262.0707 15.22250740 38185
FLOCK 3P-19             
1 41955U 17008H   17297.76675416  .00002751  00000-0  11852-3 0  9993
2 41955  97.4807 358.6426 0010932  98.1817 262.0660 15.23389990 38174
FLOCK 3P-24             
1 41956U 17008J   17297.76343178  .00006033  00000-0  25587-3 0  9998
2 41956  97.4804 358.6458 0010692  95.9615 264.2841 15.23440845 38252
FLOCK 3P-18             
1 41957U 17008K   17297.76414288  .00004711  00000-0  20058-3 0  9999
2 41957  97.4804 358.6485 0010773  97.3094 262.9368 15.23424854 38093
FLOCK 3P-22             
1 41958U 17008L   17297.77071023  .00002621  00000-0  11313-3 0  9999
2 41958  97.4808 358.6424 0010597  97.5262 262.7179 15.23376957 38081
FLOCK 3P-21             
1 41959U 17008M   17297.75987024  .00002718  00000-0  11738-3 0  9993
2 41959  97.4814 358.6716 0010463  99.2601 260.9819 15.23325362 38097
FLOCK 3P-28             
1 41960U 17008N   17297.75811333  .00002712  00000-0  11712-3 0  9990
2 41960  97.4812 358.6683 0010378  97.6075 262.6341 15.23330433 38175
FLOCK 3P-26             
1 41961U 17008P   17297.76621245  .00002786  00000-0  11999-3 0  9991
2 41961  97.4811 358.6549 0010580  96.9091 263.3350 15.23397618 38098
FLOCK 3P-17             
1 41962U 17008Q   17298.20749656  .00003138  00000-0  13502-3 0  9993
2 41962  97.4811 359.1390 0010387  98.0580 262.1836 15.23332628 38119
FLOCK 3P-27             
1 41963U 17008R   17297.77518512  .00002713  00000-0  11703-3 0  9999
2 41963  97.4811 358.6455 0010735  97.4197 262.8260 15.23359081 38097
FLOCK 3P-25             
1 41964U 17008S   17297.76071804  .00002270  00000-0  98515-4 0  9992
2 41964  97.4813 358.6581 0010329  97.4325 262.8085 15.23333224 38076
FLOCK 3P-4              
1 41965U 17008T   17297.75510948  .00002469  00000-0  10693-3 0  9999
2 41965  97.4815 358.6740 0010254  98.5878 261.6521 15.23324631 38173
FLOCK 3P-2              
1 41966U 17008U   17297.75600761  .00002427  00000-0  10513-3 0  9998
2 41966  97.4817 358.6783 0010153  97.1422 263.0969 15.23333833 38098
FLOCK 3P-1              
1 41967U 17008V   17297.77601308  .00004878  00000-0  20938-3 0  9993
2 41967  97.4815 358.6569 0010245  99.0623 261.1773 15.23136355 38097
FLOCK 3P-3              
1 41968U 17008W   17297.75885313  .00002701  00000-0  11665-3 0  9992
2 41968  97.4811 358.6674 0010256  97.7785 262.4617 15.23327224 38174
FLOCK 3P-6              
1 41969U 17008X   17298.21323265  .00003031  00000-0  13049-3 0  9993
2 41969  97.4814 359.1409 0010049  95.9871 264.2511 15.23345997 38154
FLOCK 3P-7              
1 41970U 17008Y   17297.80083452  .00002467  00000-0  10676-3 0  9995
2 41970  97.4818 358.7738 0010125  99.6247 260.6134 15.23351962 38096
FLOCK 3P-5              
1 41971U 17008Z   17297.81638898  .00002661  00000-0  11503-3 0  9993
2 41971  97.4817 358.7580 0010119  99.7161 260.5219 15.23316806 38035
FLOCK 3P-12             
1 41972U 17008AA  17298.20912315  .00003682  00000-0  15795-3 0  9998
2 41972  97.4816 359.1508 0009936  98.6599 261.5764 15.23324773 38249
FLOCK 3P-9              
1 41973U 17008AB  17298.21244302  .00002979  00000-0  12840-3 0  9990
2 41973  97.4817 359.1508 0010100  96.8717 263.3669 15.23321213 38248
FLOCK 3P-10             
1 41974U 17008AC  17297.80726568  .00004593  00000-0  19589-3 0  9995
2 41974  97.4818 358.7761 0009925  99.4461 260.7899 15.23389747 38066
